<?xml version="1.0" encoding="UTF-8"?>
<gpx version="1.1" creator="IndoorGPX" xmlns="http://www.topografix.com/GPX/1/1">
<trk><name>Circuito de exemplo</name><trkseg>
<trkpt lat="-22.889621" lon="-47.060000"><ele>648.9</ele><time>2026-09-20T07:00:00.000Z</time></trkpt>
<trkpt lat="-22.889543" lon="-47.059824"><ele>650.9</ele><time>2026-09-20T07:00:04.000Z</time></trkpt>
<trkpt lat="-22.889473" lon="-47.059647"><ele>652.8</ele><time>2026-09-20T07:00:08.000Z</time></trkpt>
<trkpt lat="-22.889409" lon="-47.059468"><ele>654.7</ele><time>2026-09-20T07:00:12.000Z</time></trkpt>
<trkpt lat="-22.889353" lon="-47.059288"><ele>656.5</ele><time>2026-09-20T07:00:16.000Z</time></trkpt>
<trkpt lat="-22.889305" lon="-47.059107"><ele>658.4</ele><time>2026-09-20T07:00:20.000Z</time></trkpt>
<trkpt lat="-22.889263" lon="-47.058925"><ele>660.2</ele><time>2026-09-20T07:00:24.000Z</time></trkpt>
<trkpt lat="-22.889229" lon="-47.058743"><ele>661.9</ele><time>2026-09-20T07:00:28.000Z</time></trkpt>
<trkpt lat="-22.889201" lon="-47.058560"><ele>663.6</ele><time>2026-09-20T07:00:32.000Z</time></trkpt>
<trkpt lat="-22.889181" lon="-47.058377"><ele>665.1</ele><time>2026-09-20T07:00:36.000Z</time></trkpt>
<trkpt lat="-22.889167" lon="-47.058193"><ele>666.7</ele><time>2026-09-20T07:00:40.000Z</time></trkpt>
<trkpt lat="-22.889160" lon="-47.058010"><ele>668.1</ele><time>2026-09-20T07:00:44.000Z</time></trkpt>
<trkpt lat="-22.889159" lon="-47.057828"><ele>669.4</ele><time>2026-09-20T07:00:48.000Z</time></trkpt>
<trkpt lat="-22.889165" lon="-47.057645"><ele>670.7</ele><time>2026-09-20T07:00:52.000Z</time></trkpt>
<trkpt lat="-22.889176" lon="-47.057463"><ele>671.9</ele><time>2026-09-20T07:00:56.000Z</time></trkpt>
<trkpt lat="-22.889193" lon="-47.057282"><ele>672.9</ele><time>2026-09-20T07:01:00.000Z</time></trkpt>
<trkpt lat="-22.889215" lon="-47.057102"><ele>673.9</ele><time>2026-09-20T07:01:04.000Z</time></trkpt>
<trkpt lat="-22.889242" lon="-47.056922"><ele>674.8</ele><time>2026-09-20T07:01:08.000Z</time></trkpt>
<trkpt lat="-22.889274" lon="-47.056743"><ele>675.6</ele><time>2026-09-20T07:01:12.000Z</time></trkpt>
<trkpt lat="-22.889310" lon="-47.056566"><ele>676.3</ele><time>2026-09-20T07:01:16.000Z</time></trkpt>
<trkpt lat="-22.889351" lon="-47.056389"><ele>676.9</ele><time>2026-09-20T07:01:20.000Z</time></trkpt>
<trkpt lat="-22.889395" lon="-47.056213"><ele>677.4</ele><time>2026-09-20T07:01:24.000Z</time></trkpt>
<trkpt lat="-22.889442" lon="-47.056039"><ele>677.9</ele><time>2026-09-20T07:01:28.000Z</time></trkpt>
<trkpt lat="-22.889493" lon="-47.055865"><ele>678.3</ele><time>2026-09-20T07:01:32.000Z</time></trkpt>
<trkpt lat="-22.889546" lon="-47.055692"><ele>678.6</ele><time>2026-09-20T07:01:36.000Z</time></trkpt>
<trkpt lat="-22.889601" lon="-47.055521"><ele>678.9</ele><time>2026-09-20T07:01:40.000Z</time></trkpt>
<trkpt lat="-22.889659" lon="-47.055350"><ele>679.1</ele><time>2026-09-20T07:01:44.000Z</time></trkpt>
<trkpt lat="-22.889718" lon="-47.055180"><ele>679.3</ele><time>2026-09-20T07:01:48.000Z</time></trkpt>
<trkpt lat="-22.889778" lon="-47.055011"><ele>679.5</ele><time>2026-09-20T07:01:52.000Z</time></trkpt>
<trkpt lat="-22.889840" lon="-47.054842"><ele>679.6</ele><time>2026-09-20T07:01:56.000Z</time></trkpt>
<trkpt lat="-22.889902" lon="-47.054675"><ele>679.8</ele><time>2026-09-20T07:02:00.000Z</time></trkpt>
<trkpt lat="-22.889965" lon="-47.054507"><ele>679.9</ele><time>2026-09-20T07:02:04.000Z</time></trkpt>
<trkpt lat="-22.890028" lon="-47.054340"><ele>680.0</ele><time>2026-09-20T07:02:08.000Z</time></trkpt>
<trkpt lat="-22.890092" lon="-47.054173"><ele>680.2</ele><time>2026-09-20T07:02:12.000Z</time></trkpt>
<trkpt lat="-22.890155" lon="-47.054006"><ele>680.3</ele><time>2026-09-20T07:02:16.000Z</time></trkpt>
<trkpt lat="-22.890217" lon="-47.053840"><ele>680.5</ele><time>2026-09-20T07:02:20.000Z</time></trkpt>
<trkpt lat="-22.890280" lon="-47.053673"><ele>680.7</ele><time>2026-09-20T07:02:24.000Z</time></trkpt>
<trkpt lat="-22.890341" lon="-47.053506"><ele>681.0</ele><time>2026-09-20T07:02:28.000Z</time></trkpt>
<trkpt lat="-22.890402" lon="-47.053338"><ele>681.3</ele><time>2026-09-20T07:02:32.000Z</time></trkpt>
<trkpt lat="-22.890462" lon="-47.053170"><ele>681.6</ele><time>2026-09-20T07:02:36.000Z</time></trkpt>
<trkpt lat="-22.890521" lon="-47.053002"><ele>682.0</ele><time>2026-09-20T07:02:40.000Z</time></trkpt>
<trkpt lat="-22.890579" lon="-47.052832"><ele>682.5</ele><time>2026-09-20T07:02:44.000Z</time></trkpt>
<trkpt lat="-22.890636" lon="-47.052662"><ele>683.0</ele><time>2026-09-20T07:02:48.000Z</time></trkpt>
<trkpt lat="-22.890692" lon="-47.052491"><ele>683.5</ele><time>2026-09-20T07:02:52.000Z</time></trkpt>
<trkpt lat="-22.890748" lon="-47.052319"><ele>684.1</ele><time>2026-09-20T07:02:56.000Z</time></trkpt>
<trkpt lat="-22.890802" lon="-47.052147"><ele>684.7</ele><time>2026-09-20T07:03:00.000Z</time></trkpt>
<trkpt lat="-22.890856" lon="-47.051973"><ele>685.4</ele><time>2026-09-20T07:03:04.000Z</time></trkpt>
<trkpt lat="-22.890909" lon="-47.051798"><ele>686.1</ele><time>2026-09-20T07:03:08.000Z</time></trkpt>
<trkpt lat="-22.890962" lon="-47.051622"><ele>686.8</ele><time>2026-09-20T07:03:12.000Z</time></trkpt>
<trkpt lat="-22.891014" lon="-47.051445"><ele>687.6</ele><time>2026-09-20T07:03:16.000Z</time></trkpt>
<trkpt lat="-22.891067" lon="-47.051267"><ele>688.4</ele><time>2026-09-20T07:03:20.000Z</time></trkpt>
<trkpt lat="-22.891119" lon="-47.051088"><ele>689.2</ele><time>2026-09-20T07:03:24.000Z</time></trkpt>
<trkpt lat="-22.891172" lon="-47.050908"><ele>690.0</ele><time>2026-09-20T07:03:28.000Z</time></trkpt>
<trkpt lat="-22.891225" lon="-47.050728"><ele>690.8</ele><time>2026-09-20T07:03:32.000Z</time></trkpt>
<trkpt lat="-22.891279" lon="-47.050547"><ele>691.6</ele><time>2026-09-20T07:03:36.000Z</time></trkpt>
<trkpt lat="-22.891334" lon="-47.050365"><ele>692.4</ele><time>2026-09-20T07:03:40.000Z</time></trkpt>
<trkpt lat="-22.891390" lon="-47.050184"><ele>693.1</ele><time>2026-09-20T07:03:44.000Z</time></trkpt>
<trkpt lat="-22.891448" lon="-47.050002"><ele>693.8</ele><time>2026-09-20T07:03:48.000Z</time></trkpt>
<trkpt lat="-22.891507" lon="-47.049820"><ele>694.5</ele><time>2026-09-20T07:03:52.000Z</time></trkpt>
<trkpt lat="-22.891569" lon="-47.049638"><ele>695.1</ele><time>2026-09-20T07:03:56.000Z</time></trkpt>
<trkpt lat="-22.891633" lon="-47.049457"><ele>695.7</ele><time>2026-09-20T07:04:00.000Z</time></trkpt>
<trkpt lat="-22.891700" lon="-47.049277"><ele>696.2</ele><time>2026-09-20T07:04:04.000Z</time></trkpt>
<trkpt lat="-22.891769" lon="-47.049098"><ele>696.6</ele><time>2026-09-20T07:04:08.000Z</time></trkpt>
<trkpt lat="-22.891842" lon="-47.048920"><ele>696.9</ele><time>2026-09-20T07:04:12.000Z</time></trkpt>
<trkpt lat="-22.891918" lon="-47.048744"><ele>697.2</ele><time>2026-09-20T07:04:16.000Z</time></trkpt>
<trkpt lat="-22.891998" lon="-47.048570"><ele>697.4</ele><time>2026-09-20T07:04:20.000Z</time></trkpt>
<trkpt lat="-22.892081" lon="-47.048398"><ele>697.4</ele><time>2026-09-20T07:04:24.000Z</time></trkpt>
<trkpt lat="-22.892169" lon="-47.048229"><ele>697.4</ele><time>2026-09-20T07:04:28.000Z</time></trkpt>
<trkpt lat="-22.892261" lon="-47.048063"><ele>697.4</ele><time>2026-09-20T07:04:32.000Z</time></trkpt>
<trkpt lat="-22.892358" lon="-47.047901"><ele>697.2</ele><time>2026-09-20T07:04:36.000Z</time></trkpt>
<trkpt lat="-22.892459" lon="-47.047742"><ele>696.9</ele><time>2026-09-20T07:04:40.000Z</time></trkpt>
<trkpt lat="-22.892565" lon="-47.047587"><ele>696.6</ele><time>2026-09-20T07:04:44.000Z</time></trkpt>
<trkpt lat="-22.892676" lon="-47.047437"><ele>696.1</ele><time>2026-09-20T07:04:48.000Z</time></trkpt>
<trkpt lat="-22.892793" lon="-47.047291"><ele>695.6</ele><time>2026-09-20T07:04:52.000Z</time></trkpt>
<trkpt lat="-22.892914" lon="-47.047151"><ele>695.0</ele><time>2026-09-20T07:04:56.000Z</time></trkpt>
<trkpt lat="-22.893040" lon="-47.047016"><ele>694.4</ele><time>2026-09-20T07:05:00.000Z</time></trkpt>
<trkpt lat="-22.893172" lon="-47.046887"><ele>693.7</ele><time>2026-09-20T07:05:04.000Z</time></trkpt>
<trkpt lat="-22.893309" lon="-47.046765"><ele>692.9</ele><time>2026-09-20T07:05:08.000Z</time></trkpt>
<trkpt lat="-22.893451" lon="-47.046648"><ele>692.1</ele><time>2026-09-20T07:05:12.000Z</time></trkpt>
<trkpt lat="-22.893598" lon="-47.046539"><ele>691.3</ele><time>2026-09-20T07:05:16.000Z</time></trkpt>
<trkpt lat="-22.893750" lon="-47.046436"><ele>690.5</ele><time>2026-09-20T07:05:20.000Z</time></trkpt>
<trkpt lat="-22.893907" lon="-47.046341"><ele>689.6</ele><time>2026-09-20T07:05:24.000Z</time></trkpt>
<trkpt lat="-22.894069" lon="-47.046253"><ele>688.7</ele><time>2026-09-20T07:05:28.000Z</time></trkpt>
<trkpt lat="-22.894236" lon="-47.046173"><ele>687.9</ele><time>2026-09-20T07:05:32.000Z</time></trkpt>
<trkpt lat="-22.894408" lon="-47.046100"><ele>687.1</ele><time>2026-09-20T07:05:36.000Z</time></trkpt>
<trkpt lat="-22.894583" lon="-47.046035"><ele>686.3</ele><time>2026-09-20T07:05:40.000Z</time></trkpt>
<trkpt lat="-22.894763" lon="-47.045979"><ele>685.5</ele><time>2026-09-20T07:05:44.000Z</time></trkpt>
<trkpt lat="-22.894947" lon="-47.045930"><ele>684.8</ele><time>2026-09-20T07:05:48.000Z</time></trkpt>
<trkpt lat="-22.895135" lon="-47.045890"><ele>684.1</ele><time>2026-09-20T07:05:52.000Z</time></trkpt>
<trkpt lat="-22.895325" lon="-47.045858"><ele>683.5</ele><time>2026-09-20T07:05:56.000Z</time></trkpt>
<trkpt lat="-22.895519" lon="-47.045834"><ele>683.0</ele><time>2026-09-20T07:06:00.000Z</time></trkpt>
<trkpt lat="-22.895716" lon="-47.045818"><ele>682.6</ele><time>2026-09-20T07:06:04.000Z</time></trkpt>
<trkpt lat="-22.895916" lon="-47.045810"><ele>682.3</ele><time>2026-09-20T07:06:08.000Z</time></trkpt>
<trkpt lat="-22.896117" lon="-47.045811"><ele>682.0</ele><time>2026-09-20T07:06:12.000Z</time></trkpt>
<trkpt lat="-22.896321" lon="-47.045818"><ele>681.8</ele><time>2026-09-20T07:06:16.000Z</time></trkpt>
<trkpt lat="-22.896526" lon="-47.045834"><ele>681.8</ele><time>2026-09-20T07:06:20.000Z</time></trkpt>
<trkpt lat="-22.896732" lon="-47.045856"><ele>681.8</ele><time>2026-09-20T07:06:24.000Z</time></trkpt>
<trkpt lat="-22.896939" lon="-47.045886"><ele>682.0</ele><time>2026-09-20T07:06:28.000Z</time></trkpt>
<trkpt lat="-22.897147" lon="-47.045922"><ele>682.2</ele><time>2026-09-20T07:06:32.000Z</time></trkpt>
<trkpt lat="-22.897354" lon="-47.045965"><ele>682.6</ele><time>2026-09-20T07:06:36.000Z</time></trkpt>
<trkpt lat="-22.897562" lon="-47.046014"><ele>683.0</ele><time>2026-09-20T07:06:40.000Z</time></trkpt>
<trkpt lat="-22.897769" lon="-47.046069"><ele>683.5</ele><time>2026-09-20T07:06:44.000Z</time></trkpt>
<trkpt lat="-22.897976" lon="-47.046129"><ele>684.2</ele><time>2026-09-20T07:06:48.000Z</time></trkpt>
<trkpt lat="-22.898181" lon="-47.046194"><ele>684.9</ele><time>2026-09-20T07:06:52.000Z</time></trkpt>
<trkpt lat="-22.898385" lon="-47.046263"><ele>685.6</ele><time>2026-09-20T07:06:56.000Z</time></trkpt>
<trkpt lat="-22.898587" lon="-47.046337"><ele>686.5</ele><time>2026-09-20T07:07:00.000Z</time></trkpt>
<trkpt lat="-22.898787" lon="-47.046413"><ele>687.4</ele><time>2026-09-20T07:07:04.000Z</time></trkpt>
<trkpt lat="-22.898985" lon="-47.046493"><ele>688.4</ele><time>2026-09-20T07:07:08.000Z</time></trkpt>
<trkpt lat="-22.899181" lon="-47.046576"><ele>689.4</ele><time>2026-09-20T07:07:12.000Z</time></trkpt>
<trkpt lat="-22.899374" lon="-47.046660"><ele>690.5</ele><time>2026-09-20T07:07:16.000Z</time></trkpt>
<trkpt lat="-22.899564" lon="-47.046746"><ele>691.6</ele><time>2026-09-20T07:07:20.000Z</time></trkpt>
<trkpt lat="-22.899751" lon="-47.046833"><ele>692.7</ele><time>2026-09-20T07:07:24.000Z</time></trkpt>
<trkpt lat="-22.899935" lon="-47.046920"><ele>693.8</ele><time>2026-09-20T07:07:28.000Z</time></trkpt>
<trkpt lat="-22.900116" lon="-47.047007"><ele>694.9</ele><time>2026-09-20T07:07:32.000Z</time></trkpt>
<trkpt lat="-22.900293" lon="-47.047094"><ele>696.0</ele><time>2026-09-20T07:07:36.000Z</time></trkpt>
<trkpt lat="-22.900466" lon="-47.047179"><ele>697.1</ele><time>2026-09-20T07:07:40.000Z</time></trkpt>
<trkpt lat="-22.900636" lon="-47.047262"><ele>698.2</ele><time>2026-09-20T07:07:44.000Z</time></trkpt>
<trkpt lat="-22.900803" lon="-47.047344"><ele>699.2</ele><time>2026-09-20T07:07:48.000Z</time></trkpt>
<trkpt lat="-22.900966" lon="-47.047423"><ele>700.3</ele><time>2026-09-20T07:07:52.000Z</time></trkpt>
<trkpt lat="-22.901125" lon="-47.047499"><ele>701.2</ele><time>2026-09-20T07:07:56.000Z</time></trkpt>
<trkpt lat="-22.901280" lon="-47.047571"><ele>702.2</ele><time>2026-09-20T07:08:00.000Z</time></trkpt>
<trkpt lat="-22.901432" lon="-47.047639"><ele>703.0</ele><time>2026-09-20T07:08:04.000Z</time></trkpt>
<trkpt lat="-22.901580" lon="-47.047703"><ele>703.9</ele><time>2026-09-20T07:08:08.000Z</time></trkpt>
<trkpt lat="-22.901725" lon="-47.047762"><ele>704.6</ele><time>2026-09-20T07:08:12.000Z</time></trkpt>
<trkpt lat="-22.901867" lon="-47.047817"><ele>705.4</ele><time>2026-09-20T07:08:16.000Z</time></trkpt>
<trkpt lat="-22.902005" lon="-47.047866"><ele>706.0</ele><time>2026-09-20T07:08:20.000Z</time></trkpt>
<trkpt lat="-22.902140" lon="-47.047909"><ele>706.6</ele><time>2026-09-20T07:08:24.000Z</time></trkpt>
<trkpt lat="-22.902273" lon="-47.047947"><ele>707.2</ele><time>2026-09-20T07:08:28.000Z</time></trkpt>
<trkpt lat="-22.902403" lon="-47.047978"><ele>707.7</ele><time>2026-09-20T07:08:32.000Z</time></trkpt>
<trkpt lat="-22.902530" lon="-47.048004"><ele>708.2</ele><time>2026-09-20T07:08:36.000Z</time></trkpt>
<trkpt lat="-22.902655" lon="-47.048023"><ele>708.6</ele><time>2026-09-20T07:08:40.000Z</time></trkpt>
<trkpt lat="-22.902778" lon="-47.048035"><ele>709.0</ele><time>2026-09-20T07:08:44.000Z</time></trkpt>
<trkpt lat="-22.902899" lon="-47.048042"><ele>709.3</ele><time>2026-09-20T07:08:48.000Z</time></trkpt>
<trkpt lat="-22.903018" lon="-47.048041"><ele>709.7</ele><time>2026-09-20T07:08:52.000Z</time></trkpt>
<trkpt lat="-22.903136" lon="-47.048035"><ele>710.0</ele><time>2026-09-20T07:08:56.000Z</time></trkpt>
<trkpt lat="-22.903252" lon="-47.048022"><ele>710.3</ele><time>2026-09-20T07:09:00.000Z</time></trkpt>
<trkpt lat="-22.903368" lon="-47.048002"><ele>710.7</ele><time>2026-09-20T07:09:04.000Z</time></trkpt>
<trkpt lat="-22.903483" lon="-47.047977"><ele>711.0</ele><time>2026-09-20T07:09:08.000Z</time></trkpt>
<trkpt lat="-22.903597" lon="-47.047945"><ele>711.3</ele><time>2026-09-20T07:09:12.000Z</time></trkpt>
<trkpt lat="-22.903711" lon="-47.047908"><ele>711.7</ele><time>2026-09-20T07:09:16.000Z</time></trkpt>
<trkpt lat="-22.903825" lon="-47.047866"><ele>712.1</ele><time>2026-09-20T07:09:20.000Z</time></trkpt>
<trkpt lat="-22.903939" lon="-47.047818"><ele>712.6</ele><time>2026-09-20T07:09:24.000Z</time></trkpt>
<trkpt lat="-22.904054" lon="-47.047765"><ele>713.1</ele><time>2026-09-20T07:09:28.000Z</time></trkpt>
<trkpt lat="-22.904168" lon="-47.047707"><ele>713.6</ele><time>2026-09-20T07:09:32.000Z</time></trkpt>
<trkpt lat="-22.904284" lon="-47.047645"><ele>714.3</ele><time>2026-09-20T07:09:36.000Z</time></trkpt>
<trkpt lat="-22.904400" lon="-47.047579"><ele>714.9</ele><time>2026-09-20T07:09:40.000Z</time></trkpt>
<trkpt lat="-22.904518" lon="-47.047510"><ele>715.7</ele><time>2026-09-20T07:09:44.000Z</time></trkpt>
<trkpt lat="-22.904636" lon="-47.047437"><ele>716.5</ele><time>2026-09-20T07:09:48.000Z</time></trkpt>
<trkpt lat="-22.904756" lon="-47.047362"><ele>717.4</ele><time>2026-09-20T07:09:52.000Z</time></trkpt>
<trkpt lat="-22.904877" lon="-47.047285"><ele>718.4</ele><time>2026-09-20T07:09:56.000Z</time></trkpt>
<trkpt lat="-22.905000" lon="-47.047205"><ele>719.4</ele><time>2026-09-20T07:10:00.000Z</time></trkpt>
<trkpt lat="-22.905124" lon="-47.047125"><ele>720.5</ele><time>2026-09-20T07:10:04.000Z</time></trkpt>
<trkpt lat="-22.905250" lon="-47.047043"><ele>721.7</ele><time>2026-09-20T07:10:08.000Z</time></trkpt>
<trkpt lat="-22.905377" lon="-47.046961"><ele>723.0</ele><time>2026-09-20T07:10:12.000Z</time></trkpt>
<trkpt lat="-22.905507" lon="-47.046879"><ele>724.3</ele><time>2026-09-20T07:10:16.000Z</time></trkpt>
<trkpt lat="-22.905637" lon="-47.046797"><ele>725.7</ele><time>2026-09-20T07:10:20.000Z</time></trkpt>
<trkpt lat="-22.905770" lon="-47.046717"><ele>727.1</ele><time>2026-09-20T07:10:24.000Z</time></trkpt>
<trkpt lat="-22.905904" lon="-47.046637"><ele>728.6</ele><time>2026-09-20T07:10:28.000Z</time></trkpt>
<trkpt lat="-22.906040" lon="-47.046560"><ele>730.1</ele><time>2026-09-20T07:10:32.000Z</time></trkpt>
<trkpt lat="-22.906177" lon="-47.046485"><ele>731.7</ele><time>2026-09-20T07:10:36.000Z</time></trkpt>
<trkpt lat="-22.906316" lon="-47.046412"><ele>733.3</ele><time>2026-09-20T07:10:40.000Z</time></trkpt>
<trkpt lat="-22.906456" lon="-47.046342"><ele>734.9</ele><time>2026-09-20T07:10:44.000Z</time></trkpt>
<trkpt lat="-22.906597" lon="-47.046276"><ele>736.5</ele><time>2026-09-20T07:10:48.000Z</time></trkpt>
<trkpt lat="-22.906740" lon="-47.046213"><ele>738.1</ele><time>2026-09-20T07:10:52.000Z</time></trkpt>
<trkpt lat="-22.906883" lon="-47.046154"><ele>739.7</ele><time>2026-09-20T07:10:56.000Z</time></trkpt>
<trkpt lat="-22.907028" lon="-47.046099"><ele>741.2</ele><time>2026-09-20T07:11:00.000Z</time></trkpt>
<trkpt lat="-22.907174" lon="-47.046049"><ele>742.7</ele><time>2026-09-20T07:11:04.000Z</time></trkpt>
<trkpt lat="-22.907320" lon="-47.046004"><ele>744.2</ele><time>2026-09-20T07:11:08.000Z</time></trkpt>
<trkpt lat="-22.907467" lon="-47.045963"><ele>745.6</ele><time>2026-09-20T07:11:12.000Z</time></trkpt>
<trkpt lat="-22.907614" lon="-47.045928"><ele>747.0</ele><time>2026-09-20T07:11:16.000Z</time></trkpt>
<trkpt lat="-22.907761" lon="-47.045898"><ele>748.2</ele><time>2026-09-20T07:11:20.000Z</time></trkpt>
<trkpt lat="-22.907909" lon="-47.045873"><ele>749.4</ele><time>2026-09-20T07:11:24.000Z</time></trkpt>
<trkpt lat="-22.908056" lon="-47.045853"><ele>750.6</ele><time>2026-09-20T07:11:28.000Z</time></trkpt>
<trkpt lat="-22.908204" lon="-47.045839"><ele>751.6</ele><time>2026-09-20T07:11:32.000Z</time></trkpt>
<trkpt lat="-22.908351" lon="-47.045831"><ele>752.5</ele><time>2026-09-20T07:11:36.000Z</time></trkpt>
<trkpt lat="-22.908498" lon="-47.045828"><ele>753.3</ele><time>2026-09-20T07:11:40.000Z</time></trkpt>
<trkpt lat="-22.908644" lon="-47.045830"><ele>754.0</ele><time>2026-09-20T07:11:44.000Z</time></trkpt>
<trkpt lat="-22.908790" lon="-47.045837"><ele>754.5</ele><time>2026-09-20T07:11:48.000Z</time></trkpt>
<trkpt lat="-22.908935" lon="-47.045850"><ele>755.0</ele><time>2026-09-20T07:11:52.000Z</time></trkpt>
<trkpt lat="-22.909080" lon="-47.045868"><ele>755.4</ele><time>2026-09-20T07:11:56.000Z</time></trkpt>
<trkpt lat="-22.909223" lon="-47.045890"><ele>755.6</ele><time>2026-09-20T07:12:00.000Z</time></trkpt>
<trkpt lat="-22.909366" lon="-47.045917"><ele>755.7</ele><time>2026-09-20T07:12:04.000Z</time></trkpt>
<trkpt lat="-22.909507" lon="-47.045949"><ele>755.7</ele><time>2026-09-20T07:12:08.000Z</time></trkpt>
<trkpt lat="-22.909648" lon="-47.045985"><ele>755.7</ele><time>2026-09-20T07:12:12.000Z</time></trkpt>
<trkpt lat="-22.909788" lon="-47.046025"><ele>755.5</ele><time>2026-09-20T07:12:16.000Z</time></trkpt>
<trkpt lat="-22.909926" lon="-47.046068"><ele>755.2</ele><time>2026-09-20T07:12:20.000Z</time></trkpt>
<trkpt lat="-22.910064" lon="-47.046115"><ele>754.8</ele><time>2026-09-20T07:12:24.000Z</time></trkpt>
<trkpt lat="-22.910201" lon="-47.046165"><ele>754.4</ele><time>2026-09-20T07:12:28.000Z</time></trkpt>
<trkpt lat="-22.910337" lon="-47.046218"><ele>753.9</ele><time>2026-09-20T07:12:32.000Z</time></trkpt>
<trkpt lat="-22.910472" lon="-47.046273"><ele>753.3</ele><time>2026-09-20T07:12:36.000Z</time></trkpt>
<trkpt lat="-22.910606" lon="-47.046331"><ele>752.6</ele><time>2026-09-20T07:12:40.000Z</time></trkpt>
<trkpt lat="-22.910740" lon="-47.046391"><ele>751.9</ele><time>2026-09-20T07:12:44.000Z</time></trkpt>
<trkpt lat="-22.910873" lon="-47.046452"><ele>751.2</ele><time>2026-09-20T07:12:48.000Z</time></trkpt>
<trkpt lat="-22.911005" lon="-47.046514"><ele>750.5</ele><time>2026-09-20T07:12:52.000Z</time></trkpt>
<trkpt lat="-22.911138" lon="-47.046577"><ele>749.7</ele><time>2026-09-20T07:12:56.000Z</time></trkpt>
<trkpt lat="-22.911270" lon="-47.046641"><ele>748.9</ele><time>2026-09-20T07:13:00.000Z</time></trkpt>
<trkpt lat="-22.911402" lon="-47.046705"><ele>748.2</ele><time>2026-09-20T07:13:04.000Z</time></trkpt>
<trkpt lat="-22.911535" lon="-47.046770"><ele>747.4</ele><time>2026-09-20T07:13:08.000Z</time></trkpt>
<trkpt lat="-22.911668" lon="-47.046834"><ele>746.7</ele><time>2026-09-20T07:13:12.000Z</time></trkpt>
<trkpt lat="-22.911801" lon="-47.046897"><ele>745.9</ele><time>2026-09-20T07:13:16.000Z</time></trkpt>
<trkpt lat="-22.911935" lon="-47.046960"><ele>745.2</ele><time>2026-09-20T07:13:20.000Z</time></trkpt>
<trkpt lat="-22.912070" lon="-47.047022"><ele>744.6</ele><time>2026-09-20T07:13:24.000Z</time></trkpt>
<trkpt lat="-22.912206" lon="-47.047083"><ele>744.0</ele><time>2026-09-20T07:13:28.000Z</time></trkpt>
<trkpt lat="-22.912343" lon="-47.047143"><ele>743.4</ele><time>2026-09-20T07:13:32.000Z</time></trkpt>
<trkpt lat="-22.912482" lon="-47.047201"><ele>742.8</ele><time>2026-09-20T07:13:36.000Z</time></trkpt>
<trkpt lat="-22.912623" lon="-47.047257"><ele>742.4</ele><time>2026-09-20T07:13:40.000Z</time></trkpt>
<trkpt lat="-22.912765" lon="-47.047312"><ele>741.9</ele><time>2026-09-20T07:13:44.000Z</time></trkpt>
<trkpt lat="-22.912909" lon="-47.047366"><ele>741.6</ele><time>2026-09-20T07:13:48.000Z</time></trkpt>
<trkpt lat="-22.913056" lon="-47.047417"><ele>741.2</ele><time>2026-09-20T07:13:52.000Z</time></trkpt>
<trkpt lat="-22.913204" lon="-47.047467"><ele>740.9</ele><time>2026-09-20T07:13:56.000Z</time></trkpt>
<trkpt lat="-22.913356" lon="-47.047515"><ele>740.7</ele><time>2026-09-20T07:14:00.000Z</time></trkpt>
<trkpt lat="-22.913509" lon="-47.047561"><ele>740.5</ele><time>2026-09-20T07:14:04.000Z</time></trkpt>
<trkpt lat="-22.913666" lon="-47.047606"><ele>740.3</ele><time>2026-09-20T07:14:08.000Z</time></trkpt>
<trkpt lat="-22.913825" lon="-47.047649"><ele>740.2</ele><time>2026-09-20T07:14:12.000Z</time></trkpt>
<trkpt lat="-22.913987" lon="-47.047690"><ele>740.1</ele><time>2026-09-20T07:14:16.000Z</time></trkpt>
<trkpt lat="-22.914152" lon="-47.047731"><ele>740.0</ele><time>2026-09-20T07:14:20.000Z</time></trkpt>
<trkpt lat="-22.914320" lon="-47.047770"><ele>739.9</ele><time>2026-09-20T07:14:24.000Z</time></trkpt>
<trkpt lat="-22.914491" lon="-47.047808"><ele>739.8</ele><time>2026-09-20T07:14:28.000Z</time></trkpt>
<trkpt lat="-22.914664" lon="-47.047846"><ele>739.7</ele><time>2026-09-20T07:14:32.000Z</time></trkpt>
<trkpt lat="-22.914841" lon="-47.047882"><ele>739.6</ele><time>2026-09-20T07:14:36.000Z</time></trkpt>
<trkpt lat="-22.915020" lon="-47.047919"><ele>739.5</ele><time>2026-09-20T07:14:40.000Z</time></trkpt>
<trkpt lat="-22.915202" lon="-47.047956"><ele>739.4</ele><time>2026-09-20T07:14:44.000Z</time></trkpt>
<trkpt lat="-22.915386" lon="-47.047993"><ele>739.2</ele><time>2026-09-20T07:14:48.000Z</time></trkpt>
<trkpt lat="-22.915573" lon="-47.048030"><ele>738.9</ele><time>2026-09-20T07:14:52.000Z</time></trkpt>
<trkpt lat="-22.915762" lon="-47.048069"><ele>738.6</ele><time>2026-09-20T07:14:56.000Z</time></trkpt>
<trkpt lat="-22.915954" lon="-47.048109"><ele>738.3</ele><time>2026-09-20T07:15:00.000Z</time></trkpt>
<trkpt lat="-22.916147" lon="-47.048150"><ele>737.9</ele><time>2026-09-20T07:15:04.000Z</time></trkpt>
<trkpt lat="-22.916342" lon="-47.048193"><ele>737.4</ele><time>2026-09-20T07:15:08.000Z</time></trkpt>
<trkpt lat="-22.916538" lon="-47.048238"><ele>736.9</ele><time>2026-09-20T07:15:12.000Z</time></trkpt>
<trkpt lat="-22.916735" lon="-47.048286"><ele>736.3</ele><time>2026-09-20T07:15:16.000Z</time></trkpt>
<trkpt lat="-22.916933" lon="-47.048336"><ele>735.6</ele><time>2026-09-20T07:15:20.000Z</time></trkpt>
<trkpt lat="-22.917131" lon="-47.048390"><ele>734.8</ele><time>2026-09-20T07:15:24.000Z</time></trkpt>
<trkpt lat="-22.917329" lon="-47.048447"><ele>734.0</ele><time>2026-09-20T07:15:28.000Z</time></trkpt>
<trkpt lat="-22.917527" lon="-47.048508"><ele>733.0</ele><time>2026-09-20T07:15:32.000Z</time></trkpt>
<trkpt lat="-22.917724" lon="-47.048573"><ele>732.0</ele><time>2026-09-20T07:15:36.000Z</time></trkpt>
<trkpt lat="-22.917920" lon="-47.048642"><ele>731.0</ele><time>2026-09-20T07:15:40.000Z</time></trkpt>
<trkpt lat="-22.918115" lon="-47.048715"><ele>729.8</ele><time>2026-09-20T07:15:44.000Z</time></trkpt>
<trkpt lat="-22.918308" lon="-47.048794"><ele>728.7</ele><time>2026-09-20T07:15:48.000Z</time></trkpt>
<trkpt lat="-22.918498" lon="-47.048877"><ele>727.4</ele><time>2026-09-20T07:15:52.000Z</time></trkpt>
<trkpt lat="-22.918686" lon="-47.048966"><ele>726.1</ele><time>2026-09-20T07:15:56.000Z</time></trkpt>
<trkpt lat="-22.918870" lon="-47.049060"><ele>724.8</ele><time>2026-09-20T07:16:00.000Z</time></trkpt>
<trkpt lat="-22.919051" lon="-47.049160"><ele>723.4</ele><time>2026-09-20T07:16:04.000Z</time></trkpt>
<trkpt lat="-22.919227" lon="-47.049265"><ele>722.0</ele><time>2026-09-20T07:16:08.000Z</time></trkpt>
<trkpt lat="-22.919399" lon="-47.049377"><ele>720.6</ele><time>2026-09-20T07:16:12.000Z</time></trkpt>
<trkpt lat="-22.919567" lon="-47.049494"><ele>719.1</ele><time>2026-09-20T07:16:16.000Z</time></trkpt>
<trkpt lat="-22.919728" lon="-47.049617"><ele>717.7</ele><time>2026-09-20T07:16:20.000Z</time></trkpt>
<trkpt lat="-22.919884" lon="-47.049746"><ele>716.3</ele><time>2026-09-20T07:16:24.000Z</time></trkpt>
<trkpt lat="-22.920034" lon="-47.049881"><ele>714.9</ele><time>2026-09-20T07:16:28.000Z</time></trkpt>
<trkpt lat="-22.920177" lon="-47.050022"><ele>713.6</ele><time>2026-09-20T07:16:32.000Z</time></trkpt>
<trkpt lat="-22.920313" lon="-47.050168"><ele>712.3</ele><time>2026-09-20T07:16:36.000Z</time></trkpt>
<trkpt lat="-22.920442" lon="-47.050321"><ele>711.0</ele><time>2026-09-20T07:16:40.000Z</time></trkpt>
<trkpt lat="-22.920564" lon="-47.050479"><ele>709.8</ele><time>2026-09-20T07:16:44.000Z</time></trkpt>
<trkpt lat="-22.920678" lon="-47.050643"><ele>708.7</ele><time>2026-09-20T07:16:48.000Z</time></trkpt>
<trkpt lat="-22.920783" lon="-47.050813"><ele>707.6</ele><time>2026-09-20T07:16:52.000Z</time></trkpt>
<trkpt lat="-22.920880" lon="-47.050987"><ele>706.7</ele><time>2026-09-20T07:16:56.000Z</time></trkpt>
<trkpt lat="-22.920969" lon="-47.051167"><ele>705.8</ele><time>2026-09-20T07:17:00.000Z</time></trkpt>
<trkpt lat="-22.921048" lon="-47.051352"><ele>705.0</ele><time>2026-09-20T07:17:04.000Z</time></trkpt>
<trkpt lat="-22.921119" lon="-47.051541"><ele>704.4</ele><time>2026-09-20T07:17:08.000Z</time></trkpt>
<trkpt lat="-22.921181" lon="-47.051734"><ele>703.8</ele><time>2026-09-20T07:17:12.000Z</time></trkpt>
<trkpt lat="-22.921234" lon="-47.051931"><ele>703.3</ele><time>2026-09-20T07:17:16.000Z</time></trkpt>
<trkpt lat="-22.921277" lon="-47.052133"><ele>703.0</ele><time>2026-09-20T07:17:20.000Z</time></trkpt>
<trkpt lat="-22.921312" lon="-47.052337"><ele>702.7</ele><time>2026-09-20T07:17:24.000Z</time></trkpt>
<trkpt lat="-22.921337" lon="-47.052545"><ele>702.6</ele><time>2026-09-20T07:17:28.000Z</time></trkpt>
<trkpt lat="-22.921353" lon="-47.052755"><ele>702.5</ele><time>2026-09-20T07:17:32.000Z</time></trkpt>
<trkpt lat="-22.921360" lon="-47.052968"><ele>702.6</ele><time>2026-09-20T07:17:36.000Z</time></trkpt>
<trkpt lat="-22.921358" lon="-47.053183"><ele>702.7</ele><time>2026-09-20T07:17:40.000Z</time></trkpt>
<trkpt lat="-22.921348" lon="-47.053400"><ele>702.9</ele><time>2026-09-20T07:17:44.000Z</time></trkpt>
<trkpt lat="-22.921329" lon="-47.053618"><ele>703.2</ele><time>2026-09-20T07:17:48.000Z</time></trkpt>
<trkpt lat="-22.921301" lon="-47.053837"><ele>703.6</ele><time>2026-09-20T07:17:52.000Z</time></trkpt>
<trkpt lat="-22.921266" lon="-47.054057"><ele>704.1</ele><time>2026-09-20T07:17:56.000Z</time></trkpt>
<trkpt lat="-22.921223" lon="-47.054278"><ele>704.6</ele><time>2026-09-20T07:18:00.000Z</time></trkpt>
<trkpt lat="-22.921172" lon="-47.054498"><ele>705.2</ele><time>2026-09-20T07:18:04.000Z</time></trkpt>
<trkpt lat="-22.921114" lon="-47.054718"><ele>705.8</ele><time>2026-09-20T07:18:08.000Z</time></trkpt>
<trkpt lat="-22.921050" lon="-47.054938"><ele>706.4</ele><time>2026-09-20T07:18:12.000Z</time></trkpt>
<trkpt lat="-22.920979" lon="-47.055157"><ele>707.0</ele><time>2026-09-20T07:18:16.000Z</time></trkpt>
<trkpt lat="-22.920902" lon="-47.055374"><ele>707.7</ele><time>2026-09-20T07:18:20.000Z</time></trkpt>
<trkpt lat="-22.920819" lon="-47.055591"><ele>708.4</ele><time>2026-09-20T07:18:24.000Z</time></trkpt>
<trkpt lat="-22.920732" lon="-47.055805"><ele>709.0</ele><time>2026-09-20T07:18:28.000Z</time></trkpt>
<trkpt lat="-22.920640" lon="-47.056018"><ele>709.7</ele><time>2026-09-20T07:18:32.000Z</time></trkpt>
<trkpt lat="-22.920543" lon="-47.056228"><ele>710.3</ele><time>2026-09-20T07:18:36.000Z</time></trkpt>
<trkpt lat="-22.920443" lon="-47.056436"><ele>710.9</ele><time>2026-09-20T07:18:40.000Z</time></trkpt>
<trkpt lat="-22.920340" lon="-47.056642"><ele>711.4</ele><time>2026-09-20T07:18:44.000Z</time></trkpt>
<trkpt lat="-22.920234" lon="-47.056845"><ele>711.9</ele><time>2026-09-20T07:18:48.000Z</time></trkpt>
<trkpt lat="-22.920126" lon="-47.057045"><ele>712.4</ele><time>2026-09-20T07:18:52.000Z</time></trkpt>
<trkpt lat="-22.920016" lon="-47.057243"><ele>712.8</ele><time>2026-09-20T07:18:56.000Z</time></trkpt>
<trkpt lat="-22.919905" lon="-47.057437"><ele>713.1</ele><time>2026-09-20T07:19:00.000Z</time></trkpt>
<trkpt lat="-22.919793" lon="-47.057629"><ele>713.4</ele><time>2026-09-20T07:19:04.000Z</time></trkpt>
<trkpt lat="-22.919681" lon="-47.057817"><ele>713.6</ele><time>2026-09-20T07:19:08.000Z</time></trkpt>
<trkpt lat="-22.919568" lon="-47.058002"><ele>713.7</ele><time>2026-09-20T07:19:12.000Z</time></trkpt>
<trkpt lat="-22.919457" lon="-47.058184"><ele>713.8</ele><time>2026-09-20T07:19:16.000Z</time></trkpt>
<trkpt lat="-22.919346" lon="-47.058363"><ele>713.8</ele><time>2026-09-20T07:19:20.000Z</time></trkpt>
<trkpt lat="-22.919236" lon="-47.058539"><ele>713.7</ele><time>2026-09-20T07:19:24.000Z</time></trkpt>
<trkpt lat="-22.919129" lon="-47.058712"><ele>713.6</ele><time>2026-09-20T07:19:28.000Z</time></trkpt>
<trkpt lat="-22.919023" lon="-47.058882"><ele>713.4</ele><time>2026-09-20T07:19:32.000Z</time></trkpt>
<trkpt lat="-22.918920" lon="-47.059049"><ele>713.2</ele><time>2026-09-20T07:19:36.000Z</time></trkpt>
<trkpt lat="-22.918819" lon="-47.059214"><ele>712.9</ele><time>2026-09-20T07:19:40.000Z</time></trkpt>
<trkpt lat="-22.918722" lon="-47.059376"><ele>712.6</ele><time>2026-09-20T07:19:44.000Z</time></trkpt>
<trkpt lat="-22.918628" lon="-47.059535"><ele>712.2</ele><time>2026-09-20T07:19:48.000Z</time></trkpt>
<trkpt lat="-22.918537" lon="-47.059692"><ele>711.9</ele><time>2026-09-20T07:19:52.000Z</time></trkpt>
<trkpt lat="-22.918450" lon="-47.059847"><ele>711.5</ele><time>2026-09-20T07:19:56.000Z</time></trkpt>
<trkpt lat="-22.918367" lon="-47.060000"><ele>711.1</ele><time>2026-09-20T07:20:00.000Z</time></trkpt>
<trkpt lat="-22.918288" lon="-47.060151"><ele>710.6</ele><time>2026-09-20T07:20:04.000Z</time></trkpt>
<trkpt lat="-22.918212" lon="-47.060300"><ele>710.2</ele><time>2026-09-20T07:20:08.000Z</time></trkpt>
<trkpt lat="-22.918141" lon="-47.060448"><ele>709.8</ele><time>2026-09-20T07:20:12.000Z</time></trkpt>
<trkpt lat="-22.918074" lon="-47.060595"><ele>709.5</ele><time>2026-09-20T07:20:16.000Z</time></trkpt>
<trkpt lat="-22.918011" lon="-47.060740"><ele>709.1</ele><time>2026-09-20T07:20:20.000Z</time></trkpt>
<trkpt lat="-22.917952" lon="-47.060885"><ele>708.8</ele><time>2026-09-20T07:20:24.000Z</time></trkpt>
<trkpt lat="-22.917897" lon="-47.061028"><ele>708.5</ele><time>2026-09-20T07:20:28.000Z</time></trkpt>
<trkpt lat="-22.917846" lon="-47.061171"><ele>708.3</ele><time>2026-09-20T07:20:32.000Z</time></trkpt>
<trkpt lat="-22.917799" lon="-47.061313"><ele>708.1</ele><time>2026-09-20T07:20:36.000Z</time></trkpt>
<trkpt lat="-22.917756" lon="-47.061455"><ele>708.0</ele><time>2026-09-20T07:20:40.000Z</time></trkpt>
<trkpt lat="-22.917715" lon="-47.061597"><ele>707.9</ele><time>2026-09-20T07:20:44.000Z</time></trkpt>
<trkpt lat="-22.917679" lon="-47.061739"><ele>707.9</ele><time>2026-09-20T07:20:48.000Z</time></trkpt>
<trkpt lat="-22.917645" lon="-47.061880"><ele>707.9</ele><time>2026-09-20T07:20:52.000Z</time></trkpt>
<trkpt lat="-22.917613" lon="-47.062022"><ele>708.1</ele><time>2026-09-20T07:20:56.000Z</time></trkpt>
<trkpt lat="-22.917585" lon="-47.062164"><ele>708.2</ele><time>2026-09-20T07:21:00.000Z</time></trkpt>
<trkpt lat="-22.917558" lon="-47.062306"><ele>708.5</ele><time>2026-09-20T07:21:04.000Z</time></trkpt>
<trkpt lat="-22.917534" lon="-47.062448"><ele>708.7</ele><time>2026-09-20T07:21:08.000Z</time></trkpt>
<trkpt lat="-22.917511" lon="-47.062591"><ele>709.1</ele><time>2026-09-20T07:21:12.000Z</time></trkpt>
<trkpt lat="-22.917489" lon="-47.062734"><ele>709.4</ele><time>2026-09-20T07:21:16.000Z</time></trkpt>
<trkpt lat="-22.917469" lon="-47.062877"><ele>709.9</ele><time>2026-09-20T07:21:20.000Z</time></trkpt>
<trkpt lat="-22.917449" lon="-47.063021"><ele>710.3</ele><time>2026-09-20T07:21:24.000Z</time></trkpt>
<trkpt lat="-22.917429" lon="-47.063165"><ele>710.8</ele><time>2026-09-20T07:21:28.000Z</time></trkpt>
<trkpt lat="-22.917409" lon="-47.063309"><ele>711.3</ele><time>2026-09-20T07:21:32.000Z</time></trkpt>
<trkpt lat="-22.917389" lon="-47.063453"><ele>711.8</ele><time>2026-09-20T07:21:36.000Z</time></trkpt>
<trkpt lat="-22.917368" lon="-47.063598"><ele>712.3</ele><time>2026-09-20T07:21:40.000Z</time></trkpt>
<trkpt lat="-22.917346" lon="-47.063742"><ele>712.8</ele><time>2026-09-20T07:21:44.000Z</time></trkpt>
<trkpt lat="-22.917322" lon="-47.063886"><ele>713.3</ele><time>2026-09-20T07:21:48.000Z</time></trkpt>
<trkpt lat="-22.917297" lon="-47.064031"><ele>713.7</ele><time>2026-09-20T07:21:52.000Z</time></trkpt>
<trkpt lat="-22.917270" lon="-47.064174"><ele>714.1</ele><time>2026-09-20T07:21:56.000Z</time></trkpt>
<trkpt lat="-22.917241" lon="-47.064318"><ele>714.5</ele><time>2026-09-20T07:22:00.000Z</time></trkpt>
<trkpt lat="-22.917210" lon="-47.064461"><ele>714.8</ele><time>2026-09-20T07:22:04.000Z</time></trkpt>
<trkpt lat="-22.917175" lon="-47.064603"><ele>715.0</ele><time>2026-09-20T07:22:08.000Z</time></trkpt>
<trkpt lat="-22.917138" lon="-47.064744"><ele>715.2</ele><time>2026-09-20T07:22:12.000Z</time></trkpt>
<trkpt lat="-22.917098" lon="-47.064884"><ele>715.3</ele><time>2026-09-20T07:22:16.000Z</time></trkpt>
<trkpt lat="-22.917054" lon="-47.065023"><ele>715.3</ele><time>2026-09-20T07:22:20.000Z</time></trkpt>
<trkpt lat="-22.917007" lon="-47.065161"><ele>715.2</ele><time>2026-09-20T07:22:24.000Z</time></trkpt>
<trkpt lat="-22.916956" lon="-47.065297"><ele>715.0</ele><time>2026-09-20T07:22:28.000Z</time></trkpt>
<trkpt lat="-22.916902" lon="-47.065431"><ele>714.7</ele><time>2026-09-20T07:22:32.000Z</time></trkpt>
<trkpt lat="-22.916844" lon="-47.065564"><ele>714.3</ele><time>2026-09-20T07:22:36.000Z</time></trkpt>
<trkpt lat="-22.916782" lon="-47.065695"><ele>713.8</ele><time>2026-09-20T07:22:40.000Z</time></trkpt>
<trkpt lat="-22.916716" lon="-47.065823"><ele>713.1</ele><time>2026-09-20T07:22:44.000Z</time></trkpt>
<trkpt lat="-22.916646" lon="-47.065949"><ele>712.4</ele><time>2026-09-20T07:22:48.000Z</time></trkpt>
<trkpt lat="-22.916573" lon="-47.066073"><ele>711.6</ele><time>2026-09-20T07:22:52.000Z</time></trkpt>
<trkpt lat="-22.916496" lon="-47.066195"><ele>710.6</ele><time>2026-09-20T07:22:56.000Z</time></trkpt>
<trkpt lat="-22.916415" lon="-47.066314"><ele>709.5</ele><time>2026-09-20T07:23:00.000Z</time></trkpt>
<trkpt lat="-22.916331" lon="-47.066431"><ele>708.4</ele><time>2026-09-20T07:23:04.000Z</time></trkpt>
<trkpt lat="-22.916243" lon="-47.066545"><ele>707.1</ele><time>2026-09-20T07:23:08.000Z</time></trkpt>
<trkpt lat="-22.916152" lon="-47.066656"><ele>705.7</ele><time>2026-09-20T07:23:12.000Z</time></trkpt>
<trkpt lat="-22.916058" lon="-47.066764"><ele>704.3</ele><time>2026-09-20T07:23:16.000Z</time></trkpt>
<trkpt lat="-22.915961" lon="-47.066870"><ele>702.8</ele><time>2026-09-20T07:23:20.000Z</time></trkpt>
<trkpt lat="-22.915862" lon="-47.066974"><ele>701.2</ele><time>2026-09-20T07:23:24.000Z</time></trkpt>
<trkpt lat="-22.915760" lon="-47.067074"><ele>699.6</ele><time>2026-09-20T07:23:28.000Z</time></trkpt>
<trkpt lat="-22.915656" lon="-47.067172"><ele>697.9</ele><time>2026-09-20T07:23:32.000Z</time></trkpt>
<trkpt lat="-22.915550" lon="-47.067268"><ele>696.1</ele><time>2026-09-20T07:23:36.000Z</time></trkpt>
<trkpt lat="-22.915442" lon="-47.067362"><ele>694.4</ele><time>2026-09-20T07:23:40.000Z</time></trkpt>
<trkpt lat="-22.915333" lon="-47.067453"><ele>692.6</ele><time>2026-09-20T07:23:44.000Z</time></trkpt>
<trkpt lat="-22.915223" lon="-47.067542"><ele>690.8</ele><time>2026-09-20T07:23:48.000Z</time></trkpt>
<trkpt lat="-22.915112" lon="-47.067630"><ele>689.0</ele><time>2026-09-20T07:23:52.000Z</time></trkpt>
<trkpt lat="-22.915001" lon="-47.067715"><ele>687.3</ele><time>2026-09-20T07:23:56.000Z</time></trkpt>
<trkpt lat="-22.914889" lon="-47.067800"><ele>685.5</ele><time>2026-09-20T07:24:00.000Z</time></trkpt>
<trkpt lat="-22.914777" lon="-47.067883"><ele>683.8</ele><time>2026-09-20T07:24:04.000Z</time></trkpt>
<trkpt lat="-22.914666" lon="-47.067965"><ele>682.1</ele><time>2026-09-20T07:24:08.000Z</time></trkpt>
<trkpt lat="-22.914556" lon="-47.068047"><ele>680.4</ele><time>2026-09-20T07:24:12.000Z</time></trkpt>
<trkpt lat="-22.914446" lon="-47.068128"><ele>678.8</ele><time>2026-09-20T07:24:16.000Z</time></trkpt>
<trkpt lat="-22.914338" lon="-47.068209"><ele>677.3</ele><time>2026-09-20T07:24:20.000Z</time></trkpt>
<trkpt lat="-22.914231" lon="-47.068290"><ele>675.8</ele><time>2026-09-20T07:24:24.000Z</time></trkpt>
<trkpt lat="-22.914125" lon="-47.068372"><ele>674.4</ele><time>2026-09-20T07:24:28.000Z</time></trkpt>
<trkpt lat="-22.914022" lon="-47.068454"><ele>673.1</ele><time>2026-09-20T07:24:32.000Z</time></trkpt>
<trkpt lat="-22.913921" lon="-47.068538"><ele>671.8</ele><time>2026-09-20T07:24:36.000Z</time></trkpt>
<trkpt lat="-22.913822" lon="-47.068623"><ele>670.6</ele><time>2026-09-20T07:24:40.000Z</time></trkpt>
<trkpt lat="-22.913725" lon="-47.068710"><ele>669.4</ele><time>2026-09-20T07:24:44.000Z</time></trkpt>
<trkpt lat="-22.913631" lon="-47.068799"><ele>668.4</ele><time>2026-09-20T07:24:48.000Z</time></trkpt>
<trkpt lat="-22.913540" lon="-47.068891"><ele>667.4</ele><time>2026-09-20T07:24:52.000Z</time></trkpt>
<trkpt lat="-22.913452" lon="-47.068985"><ele>666.5</ele><time>2026-09-20T07:24:56.000Z</time></trkpt>
<trkpt lat="-22.913367" lon="-47.069083"><ele>665.6</ele><time>2026-09-20T07:25:00.000Z</time></trkpt>
<trkpt lat="-22.913284" lon="-47.069184"><ele>664.8</ele><time>2026-09-20T07:25:04.000Z</time></trkpt>
<trkpt lat="-22.913205" lon="-47.069288"><ele>664.1</ele><time>2026-09-20T07:25:08.000Z</time></trkpt>
<trkpt lat="-22.913129" lon="-47.069397"><ele>663.4</ele><time>2026-09-20T07:25:12.000Z</time></trkpt>
<trkpt lat="-22.913055" lon="-47.069510"><ele>662.7</ele><time>2026-09-20T07:25:16.000Z</time></trkpt>
<trkpt lat="-22.912985" lon="-47.069627"><ele>662.1</ele><time>2026-09-20T07:25:20.000Z</time></trkpt>
<trkpt lat="-22.912917" lon="-47.069749"><ele>661.4</ele><time>2026-09-20T07:25:24.000Z</time></trkpt>
<trkpt lat="-22.912853" lon="-47.069876"><ele>660.9</ele><time>2026-09-20T07:25:28.000Z</time></trkpt>
<trkpt lat="-22.912791" lon="-47.070008"><ele>660.3</ele><time>2026-09-20T07:25:32.000Z</time></trkpt>
<trkpt lat="-22.912731" lon="-47.070145"><ele>659.7</ele><time>2026-09-20T07:25:36.000Z</time></trkpt>
<trkpt lat="-22.912674" lon="-47.070287"><ele>659.1</ele><time>2026-09-20T07:25:40.000Z</time></trkpt>
<trkpt lat="-22.912619" lon="-47.070435"><ele>658.5</ele><time>2026-09-20T07:25:44.000Z</time></trkpt>
<trkpt lat="-22.912566" lon="-47.070588"><ele>657.9</ele><time>2026-09-20T07:25:48.000Z</time></trkpt>
<trkpt lat="-22.912514" lon="-47.070747"><ele>657.2</ele><time>2026-09-20T07:25:52.000Z</time></trkpt>
<trkpt lat="-22.912464" lon="-47.070911"><ele>656.5</ele><time>2026-09-20T07:25:56.000Z</time></trkpt>
<trkpt lat="-22.912416" lon="-47.071081"><ele>655.8</ele><time>2026-09-20T07:26:00.000Z</time></trkpt>
<trkpt lat="-22.912368" lon="-47.071256"><ele>655.0</ele><time>2026-09-20T07:26:04.000Z</time></trkpt>
<trkpt lat="-22.912321" lon="-47.071436"><ele>654.2</ele><time>2026-09-20T07:26:08.000Z</time></trkpt>
<trkpt lat="-22.912275" lon="-47.071621"><ele>653.4</ele><time>2026-09-20T07:26:12.000Z</time></trkpt>
<trkpt lat="-22.912228" lon="-47.071811"><ele>652.4</ele><time>2026-09-20T07:26:16.000Z</time></trkpt>
<trkpt lat="-22.912182" lon="-47.072006"><ele>651.5</ele><time>2026-09-20T07:26:20.000Z</time></trkpt>
<trkpt lat="-22.912135" lon="-47.072205"><ele>650.4</ele><time>2026-09-20T07:26:24.000Z</time></trkpt>
<trkpt lat="-22.912087" lon="-47.072408"><ele>649.4</ele><time>2026-09-20T07:26:28.000Z</time></trkpt>
<trkpt lat="-22.912038" lon="-47.072615"><ele>648.2</ele><time>2026-09-20T07:26:32.000Z</time></trkpt>
<trkpt lat="-22.911987" lon="-47.072826"><ele>647.0</ele><time>2026-09-20T07:26:36.000Z</time></trkpt>
<trkpt lat="-22.911935" lon="-47.073040"><ele>645.8</ele><time>2026-09-20T07:26:40.000Z</time></trkpt>
<trkpt lat="-22.911881" lon="-47.073256"><ele>644.6</ele><time>2026-09-20T07:26:44.000Z</time></trkpt>
<trkpt lat="-22.911824" lon="-47.073475"><ele>643.3</ele><time>2026-09-20T07:26:48.000Z</time></trkpt>
<trkpt lat="-22.911765" lon="-47.073696"><ele>641.9</ele><time>2026-09-20T07:26:52.000Z</time></trkpt>
<trkpt lat="-22.911703" lon="-47.073919"><ele>640.6</ele><time>2026-09-20T07:26:56.000Z</time></trkpt>
<trkpt lat="-22.911637" lon="-47.074142"><ele>639.3</ele><time>2026-09-20T07:27:00.000Z</time></trkpt>
<trkpt lat="-22.911569" lon="-47.074366"><ele>637.9</ele><time>2026-09-20T07:27:04.000Z</time></trkpt>
<trkpt lat="-22.911497" lon="-47.074589"><ele>636.6</ele><time>2026-09-20T07:27:08.000Z</time></trkpt>
<trkpt lat="-22.911421" lon="-47.074812"><ele>635.2</ele><time>2026-09-20T07:27:12.000Z</time></trkpt>
<trkpt lat="-22.911341" lon="-47.075034"><ele>633.9</ele><time>2026-09-20T07:27:16.000Z</time></trkpt>
<trkpt lat="-22.911256" lon="-47.075255"><ele>632.6</ele><time>2026-09-20T07:27:20.000Z</time></trkpt>
<trkpt lat="-22.911168" lon="-47.075473"><ele>631.4</ele><time>2026-09-20T07:27:24.000Z</time></trkpt>
<trkpt lat="-22.911075" lon="-47.075688"><ele>630.2</ele><time>2026-09-20T07:27:28.000Z</time></trkpt>
<trkpt lat="-22.910977" lon="-47.075900"><ele>629.1</ele><time>2026-09-20T07:27:32.000Z</time></trkpt>
<trkpt lat="-22.910875" lon="-47.076109"><ele>628.0</ele><time>2026-09-20T07:27:36.000Z</time></trkpt>
<trkpt lat="-22.910768" lon="-47.076313"><ele>627.1</ele><time>2026-09-20T07:27:40.000Z</time></trkpt>
<trkpt lat="-22.910656" lon="-47.076512"><ele>626.2</ele><time>2026-09-20T07:27:44.000Z</time></trkpt>
<trkpt lat="-22.910540" lon="-47.076706"><ele>625.4</ele><time>2026-09-20T07:27:48.000Z</time></trkpt>
<trkpt lat="-22.910419" lon="-47.076894"><ele>624.7</ele><time>2026-09-20T07:27:52.000Z</time></trkpt>
<trkpt lat="-22.910293" lon="-47.077075"><ele>624.1</ele><time>2026-09-20T07:27:56.000Z</time></trkpt>
<trkpt lat="-22.910163" lon="-47.077250"><ele>623.6</ele><time>2026-09-20T07:28:00.000Z</time></trkpt>
<trkpt lat="-22.910028" lon="-47.077418"><ele>623.2</ele><time>2026-09-20T07:28:04.000Z</time></trkpt>
<trkpt lat="-22.909889" lon="-47.077578"><ele>622.9</ele><time>2026-09-20T07:28:08.000Z</time></trkpt>
<trkpt lat="-22.909745" lon="-47.077730"><ele>622.8</ele><time>2026-09-20T07:28:12.000Z</time></trkpt>
<trkpt lat="-22.909597" lon="-47.077874"><ele>622.7</ele><time>2026-09-20T07:28:16.000Z</time></trkpt>
<trkpt lat="-22.909445" lon="-47.078009"><ele>622.8</ele><time>2026-09-20T07:28:20.000Z</time></trkpt>
<trkpt lat="-22.909289" lon="-47.078135"><ele>623.0</ele><time>2026-09-20T07:28:24.000Z</time></trkpt>
<trkpt lat="-22.909130" lon="-47.078252"><ele>623.3</ele><time>2026-09-20T07:28:28.000Z</time></trkpt>
<trkpt lat="-22.908967" lon="-47.078360"><ele>623.6</ele><time>2026-09-20T07:28:32.000Z</time></trkpt>
<trkpt lat="-22.908801" lon="-47.078459"><ele>624.1</ele><time>2026-09-20T07:28:36.000Z</time></trkpt>
<trkpt lat="-22.908632" lon="-47.078547"><ele>624.7</ele><time>2026-09-20T07:28:40.000Z</time></trkpt>
<trkpt lat="-22.908460" lon="-47.078626"><ele>625.3</ele><time>2026-09-20T07:28:44.000Z</time></trkpt>
<trkpt lat="-22.908285" lon="-47.078695"><ele>626.0</ele><time>2026-09-20T07:28:48.000Z</time></trkpt>
<trkpt lat="-22.908108" lon="-47.078755"><ele>626.8</ele><time>2026-09-20T07:28:52.000Z</time></trkpt>
<trkpt lat="-22.907930" lon="-47.078804"><ele>627.6</ele><time>2026-09-20T07:28:56.000Z</time></trkpt>
<trkpt lat="-22.907749" lon="-47.078844"><ele>628.5</ele><time>2026-09-20T07:29:00.000Z</time></trkpt>
<trkpt lat="-22.907567" lon="-47.078874"><ele>629.4</ele><time>2026-09-20T07:29:04.000Z</time></trkpt>
<trkpt lat="-22.907384" lon="-47.078895"><ele>630.4</ele><time>2026-09-20T07:29:08.000Z</time></trkpt>
<trkpt lat="-22.907200" lon="-47.078906"><ele>631.3</ele><time>2026-09-20T07:29:12.000Z</time></trkpt>
<trkpt lat="-22.907015" lon="-47.078908"><ele>632.3</ele><time>2026-09-20T07:29:16.000Z</time></trkpt>
<trkpt lat="-22.906830" lon="-47.078901"><ele>633.2</ele><time>2026-09-20T07:29:20.000Z</time></trkpt>
<trkpt lat="-22.906644" lon="-47.078886"><ele>634.2</ele><time>2026-09-20T07:29:24.000Z</time></trkpt>
<trkpt lat="-22.906459" lon="-47.078862"><ele>635.1</ele><time>2026-09-20T07:29:28.000Z</time></trkpt>
<trkpt lat="-22.906274" lon="-47.078830"><ele>636.0</ele><time>2026-09-20T07:29:32.000Z</time></trkpt>
<trkpt lat="-22.906089" lon="-47.078790"><ele>636.8</ele><time>2026-09-20T07:29:36.000Z</time></trkpt>
<trkpt lat="-22.905905" lon="-47.078743"><ele>637.6</ele><time>2026-09-20T07:29:40.000Z</time></trkpt>
<trkpt lat="-22.905722" lon="-47.078689"><ele>638.3</ele><time>2026-09-20T07:29:44.000Z</time></trkpt>
<trkpt lat="-22.905539" lon="-47.078628"><ele>639.0</ele><time>2026-09-20T07:29:48.000Z</time></trkpt>
<trkpt lat="-22.905358" lon="-47.078562"><ele>639.6</ele><time>2026-09-20T07:29:52.000Z</time></trkpt>
<trkpt lat="-22.905178" lon="-47.078489"><ele>640.1</ele><time>2026-09-20T07:29:56.000Z</time></trkpt>
<trkpt lat="-22.905000" lon="-47.078412"><ele>640.6</ele><time>2026-09-20T07:30:00.000Z</time></trkpt>
<trkpt lat="-22.904823" lon="-47.078329"><ele>641.0</ele><time>2026-09-20T07:30:04.000Z</time></trkpt>
<trkpt lat="-22.904648" lon="-47.078243"><ele>641.3</ele><time>2026-09-20T07:30:08.000Z</time></trkpt>
<trkpt lat="-22.904475" lon="-47.078152"><ele>641.6</ele><time>2026-09-20T07:30:12.000Z</time></trkpt>
<trkpt lat="-22.904303" lon="-47.078058"><ele>641.7</ele><time>2026-09-20T07:30:16.000Z</time></trkpt>
<trkpt lat="-22.904133" lon="-47.077961"><ele>641.8</ele><time>2026-09-20T07:30:20.000Z</time></trkpt>
<trkpt lat="-22.903965" lon="-47.077862"><ele>641.8</ele><time>2026-09-20T07:30:24.000Z</time></trkpt>
<trkpt lat="-22.903799" lon="-47.077760"><ele>641.8</ele><time>2026-09-20T07:30:28.000Z</time></trkpt>
<trkpt lat="-22.903634" lon="-47.077657"><ele>641.7</ele><time>2026-09-20T07:30:32.000Z</time></trkpt>
<trkpt lat="-22.903472" lon="-47.077553"><ele>641.6</ele><time>2026-09-20T07:30:36.000Z</time></trkpt>
<trkpt lat="-22.903311" lon="-47.077447"><ele>641.4</ele><time>2026-09-20T07:30:40.000Z</time></trkpt>
<trkpt lat="-22.903152" lon="-47.077342"><ele>641.1</ele><time>2026-09-20T07:30:44.000Z</time></trkpt>
<trkpt lat="-22.902994" lon="-47.077236"><ele>640.9</ele><time>2026-09-20T07:30:48.000Z</time></trkpt>
<trkpt lat="-22.902838" lon="-47.077131"><ele>640.6</ele><time>2026-09-20T07:30:52.000Z</time></trkpt>
<trkpt lat="-22.902684" lon="-47.077026"><ele>640.3</ele><time>2026-09-20T07:30:56.000Z</time></trkpt>
<trkpt lat="-22.902531" lon="-47.076922"><ele>639.9</ele><time>2026-09-20T07:31:00.000Z</time></trkpt>
<trkpt lat="-22.902380" lon="-47.076819"><ele>639.6</ele><time>2026-09-20T07:31:04.000Z</time></trkpt>
<trkpt lat="-22.902229" lon="-47.076717"><ele>639.3</ele><time>2026-09-20T07:31:08.000Z</time></trkpt>
<trkpt lat="-22.902080" lon="-47.076617"><ele>639.0</ele><time>2026-09-20T07:31:12.000Z</time></trkpt>
<trkpt lat="-22.901932" lon="-47.076519"><ele>638.7</ele><time>2026-09-20T07:31:16.000Z</time></trkpt>
<trkpt lat="-22.901785" lon="-47.076422"><ele>638.5</ele><time>2026-09-20T07:31:20.000Z</time></trkpt>
<trkpt lat="-22.901638" lon="-47.076328"><ele>638.3</ele><time>2026-09-20T07:31:24.000Z</time></trkpt>
<trkpt lat="-22.901492" lon="-47.076235"><ele>638.1</ele><time>2026-09-20T07:31:28.000Z</time></trkpt>
<trkpt lat="-22.901347" lon="-47.076145"><ele>638.0</ele><time>2026-09-20T07:31:32.000Z</time></trkpt>
<trkpt lat="-22.901202" lon="-47.076057"><ele>637.9</ele><time>2026-09-20T07:31:36.000Z</time></trkpt>
<trkpt lat="-22.901058" lon="-47.075971"><ele>637.9</ele><time>2026-09-20T07:31:40.000Z</time></trkpt>
<trkpt lat="-22.900914" lon="-47.075887"><ele>637.9</ele><time>2026-09-20T07:31:44.000Z</time></trkpt>
<trkpt lat="-22.900770" lon="-47.075805"><ele>638.0</ele><time>2026-09-20T07:31:48.000Z</time></trkpt>
<trkpt lat="-22.900627" lon="-47.075725"><ele>638.2</ele><time>2026-09-20T07:31:52.000Z</time></trkpt>
<trkpt lat="-22.900483" lon="-47.075646"><ele>638.4</ele><time>2026-09-20T07:31:56.000Z</time></trkpt>
<trkpt lat="-22.900340" lon="-47.075569"><ele>638.6</ele><time>2026-09-20T07:32:00.000Z</time></trkpt>
<trkpt lat="-22.900197" lon="-47.075494"><ele>639.0</ele><time>2026-09-20T07:32:04.000Z</time></trkpt>
<trkpt lat="-22.900054" lon="-47.075420"><ele>639.3</ele><time>2026-09-20T07:32:08.000Z</time></trkpt>
<trkpt lat="-22.899911" lon="-47.075346"><ele>639.7</ele><time>2026-09-20T07:32:12.000Z</time></trkpt>
<trkpt lat="-22.899768" lon="-47.075274"><ele>640.1</ele><time>2026-09-20T07:32:16.000Z</time></trkpt>
<trkpt lat="-22.899625" lon="-47.075202"><ele>640.6</ele><time>2026-09-20T07:32:20.000Z</time></trkpt>
<trkpt lat="-22.899482" lon="-47.075130"><ele>641.1</ele><time>2026-09-20T07:32:24.000Z</time></trkpt>
<trkpt lat="-22.899339" lon="-47.075058"><ele>641.6</ele><time>2026-09-20T07:32:28.000Z</time></trkpt>
<trkpt lat="-22.899197" lon="-47.074986"><ele>642.1</ele><time>2026-09-20T07:32:32.000Z</time></trkpt>
<trkpt lat="-22.899055" lon="-47.074913"><ele>642.7</ele><time>2026-09-20T07:32:36.000Z</time></trkpt>
<trkpt lat="-22.898914" lon="-47.074840"><ele>643.2</ele><time>2026-09-20T07:32:40.000Z</time></trkpt>
<trkpt lat="-22.898773" lon="-47.074765"><ele>643.7</ele><time>2026-09-20T07:32:44.000Z</time></trkpt>
<trkpt lat="-22.898633" lon="-47.074688"><ele>644.1</ele><time>2026-09-20T07:32:48.000Z</time></trkpt>
<trkpt lat="-22.898494" lon="-47.074610"><ele>644.6</ele><time>2026-09-20T07:32:52.000Z</time></trkpt>
<trkpt lat="-22.898356" lon="-47.074529"><ele>645.0</ele><time>2026-09-20T07:32:56.000Z</time></trkpt>
<trkpt lat="-22.898220" lon="-47.074446"><ele>645.3</ele><time>2026-09-20T07:33:00.000Z</time></trkpt>
<trkpt lat="-22.898084" lon="-47.074361"><ele>645.6</ele><time>2026-09-20T07:33:04.000Z</time></trkpt>
<trkpt lat="-22.897951" lon="-47.074272"><ele>645.8</ele><time>2026-09-20T07:33:08.000Z</time></trkpt>
<trkpt lat="-22.897819" lon="-47.074180"><ele>645.9</ele><time>2026-09-20T07:33:12.000Z</time></trkpt>
<trkpt lat="-22.897689" lon="-47.074085"><ele>646.0</ele><time>2026-09-20T07:33:16.000Z</time></trkpt>
<trkpt lat="-22.897562" lon="-47.073986"><ele>645.9</ele><time>2026-09-20T07:33:20.000Z</time></trkpt>
<trkpt lat="-22.897437" lon="-47.073883"><ele>645.8</ele><time>2026-09-20T07:33:24.000Z</time></trkpt>
<trkpt lat="-22.897315" lon="-47.073776"><ele>645.6</ele><time>2026-09-20T07:33:28.000Z</time></trkpt>
<trkpt lat="-22.897196" lon="-47.073665"><ele>645.3</ele><time>2026-09-20T07:33:32.000Z</time></trkpt>
<trkpt lat="-22.897079" lon="-47.073549"><ele>644.9</ele><time>2026-09-20T07:33:36.000Z</time></trkpt>
<trkpt lat="-22.896966" lon="-47.073429"><ele>644.4</ele><time>2026-09-20T07:33:40.000Z</time></trkpt>
<trkpt lat="-22.896857" lon="-47.073305"><ele>643.8</ele><time>2026-09-20T07:33:44.000Z</time></trkpt>
<trkpt lat="-22.896752" lon="-47.073176"><ele>643.1</ele><time>2026-09-20T07:33:48.000Z</time></trkpt>
<trkpt lat="-22.896650" lon="-47.073042"><ele>642.3</ele><time>2026-09-20T07:33:52.000Z</time></trkpt>
<trkpt lat="-22.896553" lon="-47.072904"><ele>641.4</ele><time>2026-09-20T07:33:56.000Z</time></trkpt>
<trkpt lat="-22.896459" lon="-47.072762"><ele>640.5</ele><time>2026-09-20T07:34:00.000Z</time></trkpt>
<trkpt lat="-22.896370" lon="-47.072614"><ele>639.4</ele><time>2026-09-20T07:34:04.000Z</time></trkpt>
<trkpt lat="-22.896286" lon="-47.072463"><ele>638.3</ele><time>2026-09-20T07:34:08.000Z</time></trkpt>
<trkpt lat="-22.896207" lon="-47.072307"><ele>637.1</ele><time>2026-09-20T07:34:12.000Z</time></trkpt>
<trkpt lat="-22.896132" lon="-47.072147"><ele>635.9</ele><time>2026-09-20T07:34:16.000Z</time></trkpt>
<trkpt lat="-22.896062" lon="-47.071983"><ele>634.7</ele><time>2026-09-20T07:34:20.000Z</time></trkpt>
<trkpt lat="-22.895997" lon="-47.071815"><ele>633.3</ele><time>2026-09-20T07:34:24.000Z</time></trkpt>
<trkpt lat="-22.895936" lon="-47.071644"><ele>632.0</ele><time>2026-09-20T07:34:28.000Z</time></trkpt>
<trkpt lat="-22.895881" lon="-47.071469"><ele>630.7</ele><time>2026-09-20T07:34:32.000Z</time></trkpt>
<trkpt lat="-22.895831" lon="-47.071291"><ele>629.3</ele><time>2026-09-20T07:34:36.000Z</time></trkpt>
<trkpt lat="-22.895785" lon="-47.071110"><ele>628.0</ele><time>2026-09-20T07:34:40.000Z</time></trkpt>
<trkpt lat="-22.895744" lon="-47.070927"><ele>626.7</ele><time>2026-09-20T07:34:44.000Z</time></trkpt>
<trkpt lat="-22.895708" lon="-47.070742"><ele>625.4</ele><time>2026-09-20T07:34:48.000Z</time></trkpt>
<trkpt lat="-22.895677" lon="-47.070554"><ele>624.1</ele><time>2026-09-20T07:34:52.000Z</time></trkpt>
<trkpt lat="-22.895650" lon="-47.070365"><ele>622.9</ele><time>2026-09-20T07:34:56.000Z</time></trkpt>
<trkpt lat="-22.895627" lon="-47.070175"><ele>621.7</ele><time>2026-09-20T07:35:00.000Z</time></trkpt>
<trkpt lat="-22.895609" lon="-47.069984"><ele>620.6</ele><time>2026-09-20T07:35:04.000Z</time></trkpt>
<trkpt lat="-22.895594" lon="-47.069792"><ele>619.6</ele><time>2026-09-20T07:35:08.000Z</time></trkpt>
<trkpt lat="-22.895583" lon="-47.069600"><ele>618.6</ele><time>2026-09-20T07:35:12.000Z</time></trkpt>
<trkpt lat="-22.895575" lon="-47.069409"><ele>617.7</ele><time>2026-09-20T07:35:16.000Z</time></trkpt>
<trkpt lat="-22.895570" lon="-47.069217"><ele>616.9</ele><time>2026-09-20T07:35:20.000Z</time></trkpt>
<trkpt lat="-22.895568" lon="-47.069027"><ele>616.2</ele><time>2026-09-20T07:35:24.000Z</time></trkpt>
<trkpt lat="-22.895568" lon="-47.068838"><ele>615.6</ele><time>2026-09-20T07:35:28.000Z</time></trkpt>
<trkpt lat="-22.895571" lon="-47.068650"><ele>615.1</ele><time>2026-09-20T07:35:32.000Z</time></trkpt>
<trkpt lat="-22.895575" lon="-47.068464"><ele>614.7</ele><time>2026-09-20T07:35:36.000Z</time></trkpt>
<trkpt lat="-22.895581" lon="-47.068281"><ele>614.4</ele><time>2026-09-20T07:35:40.000Z</time></trkpt>
<trkpt lat="-22.895587" lon="-47.068099"><ele>614.1</ele><time>2026-09-20T07:35:44.000Z</time></trkpt>
<trkpt lat="-22.895594" lon="-47.067921"><ele>614.0</ele><time>2026-09-20T07:35:48.000Z</time></trkpt>
<trkpt lat="-22.895601" lon="-47.067745"><ele>614.0</ele><time>2026-09-20T07:35:52.000Z</time></trkpt>
<trkpt lat="-22.895608" lon="-47.067572"><ele>614.0</ele><time>2026-09-20T07:35:56.000Z</time></trkpt>
<trkpt lat="-22.895614" lon="-47.067403"><ele>614.1</ele><time>2026-09-20T07:36:00.000Z</time></trkpt>
<trkpt lat="-22.895619" lon="-47.067237"><ele>614.3</ele><time>2026-09-20T07:36:04.000Z</time></trkpt>
<trkpt lat="-22.895623" lon="-47.067075"><ele>614.5</ele><time>2026-09-20T07:36:08.000Z</time></trkpt>
<trkpt lat="-22.895624" lon="-47.066917"><ele>614.8</ele><time>2026-09-20T07:36:12.000Z</time></trkpt>
<trkpt lat="-22.895623" lon="-47.066763"><ele>615.2</ele><time>2026-09-20T07:36:16.000Z</time></trkpt>
<trkpt lat="-22.895620" lon="-47.066613"><ele>615.5</ele><time>2026-09-20T07:36:20.000Z</time></trkpt>
<trkpt lat="-22.895613" lon="-47.066467"><ele>616.0</ele><time>2026-09-20T07:36:24.000Z</time></trkpt>
<trkpt lat="-22.895603" lon="-47.066325"><ele>616.4</ele><time>2026-09-20T07:36:28.000Z</time></trkpt>
<trkpt lat="-22.895589" lon="-47.066187"><ele>616.9</ele><time>2026-09-20T07:36:32.000Z</time></trkpt>
<trkpt lat="-22.895571" lon="-47.066054"><ele>617.3</ele><time>2026-09-20T07:36:36.000Z</time></trkpt>
<trkpt lat="-22.895548" lon="-47.065924"><ele>617.8</ele><time>2026-09-20T07:36:40.000Z</time></trkpt>
<trkpt lat="-22.895520" lon="-47.065799"><ele>618.3</ele><time>2026-09-20T07:36:44.000Z</time></trkpt>
<trkpt lat="-22.895487" lon="-47.065677"><ele>618.7</ele><time>2026-09-20T07:36:48.000Z</time></trkpt>
<trkpt lat="-22.895449" lon="-47.065560"><ele>619.2</ele><time>2026-09-20T07:36:52.000Z</time></trkpt>
<trkpt lat="-22.895405" lon="-47.065445"><ele>619.6</ele><time>2026-09-20T07:36:56.000Z</time></trkpt>
<trkpt lat="-22.895356" lon="-47.065335"><ele>619.9</ele><time>2026-09-20T07:37:00.000Z</time></trkpt>
<trkpt lat="-22.895300" lon="-47.065227"><ele>620.3</ele><time>2026-09-20T07:37:04.000Z</time></trkpt>
<trkpt lat="-22.895239" lon="-47.065123"><ele>620.6</ele><time>2026-09-20T07:37:08.000Z</time></trkpt>
<trkpt lat="-22.895171" lon="-47.065021"><ele>620.8</ele><time>2026-09-20T07:37:12.000Z</time></trkpt>
<trkpt lat="-22.895097" lon="-47.064922"><ele>621.1</ele><time>2026-09-20T07:37:16.000Z</time></trkpt>
<trkpt lat="-22.895016" lon="-47.064825"><ele>621.2</ele><time>2026-09-20T07:37:20.000Z</time></trkpt>
<trkpt lat="-22.894930" lon="-47.064731"><ele>621.4</ele><time>2026-09-20T07:37:24.000Z</time></trkpt>
<trkpt lat="-22.894837" lon="-47.064638"><ele>621.5</ele><time>2026-09-20T07:37:28.000Z</time></trkpt>
<trkpt lat="-22.894738" lon="-47.064546"><ele>621.5</ele><time>2026-09-20T07:37:32.000Z</time></trkpt>
<trkpt lat="-22.894633" lon="-47.064456"><ele>621.5</ele><time>2026-09-20T07:37:36.000Z</time></trkpt>
<trkpt lat="-22.894521" lon="-47.064367"><ele>621.5</ele><time>2026-09-20T07:37:40.000Z</time></trkpt>
<trkpt lat="-22.894405" lon="-47.064278"><ele>621.5</ele><time>2026-09-20T07:37:44.000Z</time></trkpt>
<trkpt lat="-22.894282" lon="-47.064189"><ele>621.4</ele><time>2026-09-20T07:37:48.000Z</time></trkpt>
<trkpt lat="-22.894154" lon="-47.064100"><ele>621.3</ele><time>2026-09-20T07:37:52.000Z</time></trkpt>
<trkpt lat="-22.894021" lon="-47.064011"><ele>621.2</ele><time>2026-09-20T07:37:56.000Z</time></trkpt>
<trkpt lat="-22.893884" lon="-47.063921"><ele>621.2</ele><time>2026-09-20T07:38:00.000Z</time></trkpt>
<trkpt lat="-22.893741" lon="-47.063830"><ele>621.1</ele><time>2026-09-20T07:38:04.000Z</time></trkpt>
<trkpt lat="-22.893595" lon="-47.063738"><ele>621.1</ele><time>2026-09-20T07:38:08.000Z</time></trkpt>
<trkpt lat="-22.893445" lon="-47.063644"><ele>621.0</ele><time>2026-09-20T07:38:12.000Z</time></trkpt>
<trkpt lat="-22.893292" lon="-47.063549"><ele>621.1</ele><time>2026-09-20T07:38:16.000Z</time></trkpt>
<trkpt lat="-22.893135" lon="-47.063451"><ele>621.1</ele><time>2026-09-20T07:38:20.000Z</time></trkpt>
<trkpt lat="-22.892977" lon="-47.063351"><ele>621.2</ele><time>2026-09-20T07:38:24.000Z</time></trkpt>
<trkpt lat="-22.892816" lon="-47.063249"><ele>621.4</ele><time>2026-09-20T07:38:28.000Z</time></trkpt>
<trkpt lat="-22.892653" lon="-47.063144"><ele>621.6</ele><time>2026-09-20T07:38:32.000Z</time></trkpt>
<trkpt lat="-22.892490" lon="-47.063036"><ele>622.0</ele><time>2026-09-20T07:38:36.000Z</time></trkpt>
<trkpt lat="-22.892326" lon="-47.062925"><ele>622.3</ele><time>2026-09-20T07:38:40.000Z</time></trkpt>
<trkpt lat="-22.892161" lon="-47.062810"><ele>622.8</ele><time>2026-09-20T07:38:44.000Z</time></trkpt>
<trkpt lat="-22.891998" lon="-47.062693"><ele>623.4</ele><time>2026-09-20T07:38:48.000Z</time></trkpt>
<trkpt lat="-22.891834" lon="-47.062572"><ele>624.1</ele><time>2026-09-20T07:38:52.000Z</time></trkpt>
<trkpt lat="-22.891673" lon="-47.062447"><ele>624.8</ele><time>2026-09-20T07:38:56.000Z</time></trkpt>
<trkpt lat="-22.891513" lon="-47.062319"><ele>625.7</ele><time>2026-09-20T07:39:00.000Z</time></trkpt>
<trkpt lat="-22.891355" lon="-47.062187"><ele>626.7</ele><time>2026-09-20T07:39:04.000Z</time></trkpt>
<trkpt lat="-22.891201" lon="-47.062052"><ele>627.8</ele><time>2026-09-20T07:39:08.000Z</time></trkpt>
<trkpt lat="-22.891049" lon="-47.061913"><ele>628.9</ele><time>2026-09-20T07:39:12.000Z</time></trkpt>
<trkpt lat="-22.890901" lon="-47.061771"><ele>630.2</ele><time>2026-09-20T07:39:16.000Z</time></trkpt>
<trkpt lat="-22.890757" lon="-47.061625"><ele>631.6</ele><time>2026-09-20T07:39:20.000Z</time></trkpt>
<trkpt lat="-22.890618" lon="-47.061476"><ele>633.0</ele><time>2026-09-20T07:39:24.000Z</time></trkpt>
<trkpt lat="-22.890483" lon="-47.061323"><ele>634.6</ele><time>2026-09-20T07:39:28.000Z</time></trkpt>
<trkpt lat="-22.890354" lon="-47.061168"><ele>636.2</ele><time>2026-09-20T07:39:32.000Z</time></trkpt>
<trkpt lat="-22.890231" lon="-47.061009"><ele>637.9</ele><time>2026-09-20T07:39:36.000Z</time></trkpt>
<trkpt lat="-22.890113" lon="-47.060847"><ele>639.6</ele><time>2026-09-20T07:39:40.000Z</time></trkpt>
<trkpt lat="-22.890001" lon="-47.060682"><ele>641.4</ele><time>2026-09-20T07:39:44.000Z</time></trkpt>
<trkpt lat="-22.889896" lon="-47.060515"><ele>643.2</ele><time>2026-09-20T07:39:48.000Z</time></trkpt>
<trkpt lat="-22.889797" lon="-47.060346"><ele>645.1</ele><time>2026-09-20T07:39:52.000Z</time></trkpt>
<trkpt lat="-22.889706" lon="-47.060174"><ele>647.0</ele><time>2026-09-20T07:39:56.000Z</time></trkpt>
<trkpt lat="-22.889621" lon="-47.060000"><ele>648.9</ele><time>2026-09-20T07:40:00.000Z</time></trkpt>
</trkseg></trk>
</gpx>
